{
  "type": "FeatureCollection",
  "features": [
    {
      "type": "Feature",
      "properties": {
        "norad_id": 67004,
        "name": "STARLINK-35913",
        "group": "last-30-days",
        "lat": -63.71800487186099,
        "lon": -115.78684032438576,
        "alt_km": 326.6131567925004,
        "timestamp": "2025-12-23T18:59:30.759998+00:00",
        "meta_object_name": "STARLINK-35913",
        "meta_object_id": "2025-293B",
        "meta_epoch": "2025-12-23T06:00:00.999648",
        "meta_mean_motion": 15.84817277,
        "meta_eccentricity": 0.00036029,
        "meta_inclination": 69.9939,
        "meta_ra_of_asc_node": 293.3113,
        "meta_arg_of_pericenter": 271.9328,
        "meta_mean_anomaly": 169.8884,
        "meta_ephemeris_type": 0,
        "meta_classification_type": "U",
        "meta_norad_cat_id": 67004,
        "meta_element_set_no": 999,
        "meta_rev_at_epoch": 186,
        "meta_bstar": -0.0077721691,
        "meta_mean_motion_dot": -0.0159057,
        "meta_mean_motion_ddot": 0,
        "tle_line1": "1 67004U 25293B   25357.25001157 -.01590570  00000+0 -77722-2 0  9996",
        "tle_line2": "2 67004  69.9939 293.3113 0003602 271.9328 169.8884 15.84817277  1868"
      },
      "geometry": {
        "type": "Point",
        "coordinates": [
          -115.78684032438576,
          -63.71800487186099
        ]
      }
    },
    {
      "type": "Feature",
      "properties": {
        "norad_id": 67005,
        "name": "STARLINK-36148",
        "group": "last-30-days",
        "lat": -62.18186629113988,
        "lon": -111.91652799191745,
        "alt_km": 326.6009429095693,
        "timestamp": "2025-12-23T18:59:30.760007+00:00",
        "meta_object_name": "STARLINK-36148",
        "meta_object_id": "2025-293C",
        "meta_epoch": "2025-12-23T06:00:00.999648",
        "meta_mean_motion": 15.84803397,
        "meta_eccentricity": 0.00036827,
        "meta_inclination": 69.994,
        "meta_ra_of_asc_node": 293.309,
        "meta_arg_of_pericenter": 272.6678,
        "meta_mean_anomaly": 171.5224,
        "meta_ephemeris_type": 0,
        "meta_classification_type": "U",
        "meta_norad_cat_id": 67005,
        "meta_element_set_no": 999,
        "meta_rev_at_epoch": 186,
        "meta_bstar": -0.0077854821,
        "meta_mean_motion_dot": -0.01592107,
        "meta_mean_motion_ddot": 0,
        "tle_line1": "1 67005U 25293C   25357.25001157 -.01592107  00000+0 -77855-2 0  9992",
        "tle_line2": "2 67005  69.9940 293.3090 0003682 272.6678 171.5224 15.84803397  1865"
      },
      "geometry": {
        "type": "Point",
        "coordinates": [
          -111.91652799191745,
          -62.18186629113988
        ]
      }
    },
    {
      "type": "Feature",
      "properties": {
        "norad_id": 67006,
        "name": "STARLINK-36156",
        "group": "last-30-days",
        "lat": -58.320770664957706,
        "lon": -104.43849003952742,
        "alt_km": 326.6946222321567,
        "timestamp": "2025-12-23T18:59:30.760016+00:00",
        "meta_object_name": "STARLINK-36156",
        "meta_object_id": "2025-293D",
        "meta_epoch": "2025-12-23T06:00:00.999648",
        "meta_mean_motion": 15.84735298,
        "meta_eccentricity": 0.00037761,
        "meta_inclination": 69.9939,
        "meta_ra_of_asc_node": 293.3017,
        "meta_arg_of_pericenter": 274.5387,
        "meta_mean_anomaly": 175.1377,
        "meta_ephemeris_type": 0,
        "meta_classification_type": "U",
        "meta_norad_cat_id": 67006,
        "meta_element_set_no": 999,
        "meta_rev_at_epoch": 186,
        "meta_bstar": -0.0077834077,
        "meta_mean_motion_dot": -0.01587249,
        "meta_mean_motion_ddot": 0,
        "tle_line1": "1 67006U 25293D   25357.25001157 -.01587249  00000+0 -77834-2 0  9991",
        "tle_line2": "2 67006  69.9939 293.3017 0003776 274.5387 175.1377 15.84735298  1868"
      },
      "geometry": {
        "type": "Point",
        "coordinates": [
          -104.43849003952742,
          -58.320770664957706
        ]
      }
    },
    {
      "type": "Feature",
      "properties": {
        "norad_id": 67007,
        "name": "STARLINK-36123",
        "group": "last-30-days",
        "lat": -60.148624726213015,
        "lon": -107.66009931106318,
        "alt_km": 326.6181501351102,
        "timestamp": "2025-12-23T18:59:30.760025+00:00",
        "meta_object_name": "STARLINK-36123",
        "meta_object_id": "2025-293E",
        "meta_epoch": "2025-12-23T06:00:00.999648",
        "meta_mean_motion": 15.84774364,
        "meta_eccentricity": 0.00038074,
        "meta_inclination": 69.9938,
        "meta_ra_of_asc_node": 293.3047,
        "meta_arg_of_pericenter": 272.901,
        "meta_mean_anomaly": 174.244,
        "meta_ephemeris_type": 0,
        "meta_classification_type": "U",
        "meta_norad_cat_id": 67007,
        "meta_element_set_no": 999,
        "meta_rev_at_epoch": 186,
        "meta_bstar": -0.0078164884,
        "meta_mean_motion_dot": -0.01595836,
        "meta_mean_motion_ddot": 0,
        "tle_line1": "1 67007U 25293E   25357.25001157 -.01595836  00000+0 -78165-2 0  9991",
        "tle_line2": "2 67007  69.9938 293.3047 0003807 272.9010 174.2440 15.84774364  1869"
      },
      "geometry": {
        "type": "Point",
        "coordinates": [
          -107.66009931106318,
          -60.148624726213015
        ]
      }
    },
    {
      "type": "Feature",
      "properties": {
        "norad_id": 67008,
        "name": "STARLINK-36163",
        "group": "last-30-days",
        "lat": -55.917210426116654,
        "lon": -100.83625464878867,
        "alt_km": 326.6966874074551,
        "timestamp": "2025-12-23T18:59:30.760033+00:00",
        "meta_object_name": "STARLINK-36163",
        "meta_object_id": "2025-293F",
        "meta_epoch": "2025-12-23T06:00:00.999648",
        "meta_mean_motion": 15.84717678,
        "meta_eccentricity": 0.0003867,
        "meta_inclination": 69.994,
        "meta_ra_of_asc_node": 293.2983,
        "meta_arg_of_pericenter": 276.2739,
        "meta_mean_anomaly": 176.5544,
        "meta_ephemeris_type": 0,
        "meta_classification_type": "U",
        "meta_norad_cat_id": 67008,
        "meta_element_set_no": 999,
        "meta_rev_at_epoch": 186,
        "meta_bstar": -0.0078488792,
        "meta_mean_motion_dot": -0.01597854,
        "meta_mean_motion_ddot": 0,
        "tle_line1": "1 67008U 25293F   25357.25001157 -.01597854  00000+0 -78489-2 0  9993",
        "tle_line2": "2 67008  69.9940 293.2983 0003867 276.2739 176.5544 15.84717678  1867"
      },
      "geometry": {
        "type": "Point",
        "coordinates": [
          -100.83625464878867,
          -55.917210426116654
        ]
      }
    },
    {
      "type": "Feature",
      "properties": {
        "norad_id": 67009,
        "name": "STARLINK-36118",
        "group": "last-30-days",
        "lat": -53.81191550044803,
        "lon": -98.12913149893888,
        "alt_km": 326.7673031573486,
        "timestamp": "2025-12-23T18:59:30.760042+00:00",
        "meta_object_name": "STARLINK-36118",
        "meta_object_id": "2025-293G",
        "meta_epoch": "2025-12-23T06:00:00.999648",
        "meta_mean_motion": 15.84690482,
        "meta_eccentricity": 0.00038294,
        "meta_inclination": 69.9938,
        "meta_ra_of_asc_node": 293.295,
        "meta_arg_of_pericenter": 277.026,
        "meta_mean_anomaly": 178.4743,
        "meta_ephemeris_type": 0,
        "meta_classification_type": "U",
        "meta_norad_cat_id": 67009,
        "meta_element_set_no": 999,
        "meta_rev_at_epoch": 180,
        "meta_bstar": -0.0078382995,
        "meta_mean_motion_dot": -0.01594088,
        "meta_mean_motion_ddot": 0,
        "tle_line1": "1 67009U 25293G   25357.25001157 -.01594088  00000+0 -78383-2 0  9993",
        "tle_line2": "2 67009  69.9938 293.2950 0003829 277.0260 178.4743 15.84690482  1804"
      },
      "geometry": {
        "type": "Point",
        "coordinates": [
          -98.12913149893888,
          -53.81191550044803
        ]
      }
    },
    {
      "type": "Feature",
      "properties": {
        "norad_id": 67010,
        "name": "STARLINK-36189",
        "group": "last-30-days",
        "lat": -49.85025636965292,
        "lon": -93.8537776995331,
        "alt_km": 327.07326710112466,
        "timestamp": "2025-12-23T18:59:30.760052+00:00",
        "meta_object_name": "STARLINK-36189",
        "meta_object_id": "2025-293H",
        "meta_epoch": "2025-12-23T06:00:00.999648",
        "meta_mean_motion": 15.84666987,
        "meta_eccentricity": 0.00036368,
        "meta_inclination": 69.9939,
        "meta_ra_of_asc_node": 293.289,
        "meta_arg_of_pericenter": 272.0902,
        "meta_mean_anomaly": 188.2282,
        "meta_ephemeris_type": 0,
        "meta_classification_type": "U",
        "meta_norad_cat_id": 67010,
        "meta_element_set_no": 999,
        "meta_rev_at_epoch": 186,
        "meta_bstar": -0.0078768248,
        "meta_mean_motion_dot": -0.01599146,
        "meta_mean_motion_ddot": 0,
        "tle_line1": "1 67010U 25293H   25357.25001157 -.01599146  00000+0 -78768-2 0  9992",
        "tle_line2": "2 67010  69.9939 293.2890 0003636 272.0902 188.2282 15.84666987  1860"
      },
      "geometry": {
        "type": "Point",
        "coordinates": [
          -93.8537776995331,
          -49.85025636965292
        ]
      }
    }
  ]
}